GSAT0225 (GALILEO 29)   
1 59598U 24079A   26196.85066248 -.00000027  00000+0  00000+0 0  9999
2 59598  55.1362 100.2788 0000577 334.6086 202.4924  1.70473737 13809
GSAT0227 (GALILEO 30)   
1 59600U 24079C   26194.98582021 -.00000030  00000+0  00000+0 0  9991
2 59600  55.1303 100.3294 0002845  67.2681 292.7822  1.70473814 13828
GSAT0232 (GALILEO 32)   
1 61182U 24167A   26195.27548545  .00000067  00000+0  00000+0 0  9992
2 61182  55.1796 220.5702 0006487 231.1885 162.2574  1.70474020 11345
GSAT0226 (GALILEO 31)   
1 61183U 24167B   26196.54067126  .00000056  00000+0  00000+0 0  9993
2 61183  55.1780 220.5424 0003199 236.5502 304.7031  1.70474019 11330
BEIDOU-3 M25            
1 61186U 24168B   26196.92183439 -.00000073  00000+0  00000+0 0  9995
2 61186  54.4457 301.2431 0003330 291.7483  71.3144  1.86229896 12329
BEIDOU-3 M27            
1 61187U 24168C   26196.72211417 -.00000072  00000+0  00000+0 0  9991
2 61187  54.4414 301.2327 0000897  47.3291 316.8662  1.86229941  9794
NAVSTAR 83 (USA 440)    
1 62339U 24242A   26196.26238574 -.00000098  00000+0  00000+0 0  9994
2 62339  54.8361 333.0431 0017850   4.0455 357.4977  2.00571937 11826
QZS-6 (MICHIBIKI-6)     
1 62876U 25023A   26196.78887578 -.00000242  00000+0  00000+0 0  9990
2 62876   0.0103  12.6020 0001839 119.3403 176.0977  1.00266863  5237
COSMOS 2584 [GLONASS-K2]
1 63130U 25042A   26194.88797737 -.00000010  00000+0  00000+0 0  9994
2 63130  65.0996  71.8945 0005460 213.8001 146.2394  2.13103784 10610
NAVSTAR 84 (USA 545)    
1 64202U 25116A   26196.47513194 -.00000073  00000+0  00000+0 0  9996
2 64202  55.2539  29.9927 0008449 339.4442 358.8482  2.00573676  8436
COSMOS 2596 [GLONASS-K1]
1 65590U 25206B   26194.33478170 -.00000064  00000+0  00000+0 0  9994
2 65590  64.6178 314.0753 0011126 307.7533 103.9433  2.13100618  6473
GSAT0233 (GALILEO 33)   
1 67160U 25302A   26196.68224821 -.00000028  00000+0  00000+0 0  9998
2 67160  54.3503 101.3186 0000942 153.4339 211.2208  1.70473798  3617
GSAT0234 (GALILEO 34)   
1 67162U 25302C   26195.51064653 -.00000030  00000+0  00000+0 0  9999
2 67162  54.3528 101.3514 0002302 321.0338 224.6861  1.70473847  3646
NAVSTAR 85 (USA 581)    
1 67588U 26017A   26196.11679098 -.00000026  00000+0  00000+0 0  9992
2 67588  55.1061  87.6342 0021639 260.3058  99.5008  2.00570507432173
NAVSTAR 86 (USA 585)    
1 68791U 26087A   26196.46816847  .00000049  00000+0  00000+0 0  9993
2 68791  54.9617 206.6692 0020461 106.0864 353.1427  2.00572628  1406
